[{"OBJECT_NAME":"TOMORROW-S5","OBJECT_ID":"2025-052AA","EPOCH":"2026-03-09T22:18:56.653632","MEAN_MOTION":15.21504663,"ECCENTRICITY":0.0008039,"INCLINATION":97.4097,"RA_OF_ASC_NODE":323.1718,"ARG_OF_PERICENTER":130.4519,"MEAN_ANOMALY":229.7419,"EPHEMERIS_TYPE":0,"CLASSIFICATION_TYPE":"U","NORAD_CAT_ID":63234,"ELEMENT_SET_NO":999,"REV_AT_EPOCH":5474,"BSTAR":0.00063877552,"MEAN_MOTION_DOT":0.00014334,"MEAN_MOTION_DDOT":0},{"OBJECT_NAME":"HORS 5","OBJECT_ID":"2025-313AM","EPOCH":"2026-03-09T21:29:36.364128","MEAN_MOTION":15.22460599,"ECCENTRICITY":0.00102591,"INCLINATION":97.4003,"RA_OF_ASC_NODE":145.2415,"ARG_OF_PERICENTER":355.2078,"MEAN_ANOMALY":4.9058,"EPHEMERIS_TYPE":0,"CLASSIFICATION_TYPE":"U","NORAD_CAT_ID":67283,"ELEMENT_SET_NO":999,"REV_AT_EPOCH":1085,"BSTAR":0.0004492473,"MEAN_MOTION_DOT":0.00010348,"MEAN_MOTION_DDOT":0}]
